{
  "type": "FeatureCollection",
  "features": [
    {
      "type": "Feature",
      "properties": {
        "norad_id": 30013,
        "name": "FENGYUN 1C DEB",
        "group": "fengyun-1c-debris",
        "lat": 47.859311022722565,
        "lon": -7.529173274274763,
        "alt_km": 838.1331866141645,
        "timestamp": "2025-12-09T21:34:11.681089+00:00",
        "meta_object_name": "FENGYUN 1C DEB",
        "meta_object_id": "1999-025MN",
        "meta_epoch": "2025-12-09T00:50:11.124672",
        "meta_mean_motion": 13.87821663,
        "meta_eccentricity": 0.01283303,
        "meta_inclination": 99.5804,
        "meta_ra_of_asc_node": 2.342,
        "meta_arg_of_pericenter": 53.846,
        "meta_mean_anomaly": 1.1956,
        "meta_ephemeris_type": 0,
        "meta_classification_type": "U",
        "meta_norad_cat_id": 30013,
        "meta_element_set_no": 999,
        "meta_rev_at_epoch": 95630,
        "meta_bstar": 0.00032797577,
        "meta_mean_motion_dot": 3.69e-06,
        "meta_mean_motion_ddot": 0,
        "tle_line1": "1 30013U 99025MN  25343.03485098  .00000369  00000+0  32798-3 0  9995",
        "tle_line2": "2 30013  99.5804   2.3420 0128330  53.8460   1.1956 13.87821663956308"
      },
      "geometry": {
        "type": "Point",
        "coordinates": [
          -7.529173274274763,
          47.859311022722565
        ]
      }
    },
    {
      "type": "Feature",
      "properties": {
        "norad_id": 30015,
        "name": "FENGYUN 1C DEB",
        "group": "fengyun-1c-debris",
        "lat": -4.54359477794436,
        "lon": 165.86656172994782,
        "alt_km": 775.3470542928299,
        "timestamp": "2025-12-09T21:34:11.681099+00:00",
        "meta_object_name": "FENGYUN 1C DEB",
        "meta_object_id": "1999-025MQ",
        "meta_epoch": "2025-12-09T07:21:05.069088",
        "meta_mean_motion": 14.30784164,
        "meta_eccentricity": 0.0038469,
        "meta_inclination": 99.2282,
        "meta_ra_of_asc_node": 345.9784,
        "meta_arg_of_pericenter": 134.7141,
        "meta_mean_anomaly": 239.5913,
        "meta_ephemeris_type": 0,
        "meta_classification_type": "U",
        "meta_norad_cat_id": 30015,
        "meta_element_set_no": 999,
        "meta_rev_at_epoch": 98124,
        "meta_bstar": 0.00094421,
        "meta_mean_motion_dot": 2.445e-05,
        "meta_mean_motion_ddot": 0,
        "tle_line1": "1 30015U 99025MQ  25343.30630867  .00002445  00000+0  94421-3 0  9991",
        "tle_line2": "2 30015  99.2282 345.9784 0038469 134.7141 239.5913 14.30784164981248"
      },
      "geometry": {
        "type": "Point",
        "coordinates": [
          165.86656172994782,
          -4.54359477794436
        ]
      }
    },
    {
      "type": "Feature",
      "properties": {
        "norad_id": 30016,
        "name": "FENGYUN 1C DEB",
        "group": "fengyun-1c-debris",
        "lat": -5.5807149526969635,
        "lon": 174.68546419167873,
        "alt_km": 661.7525389324728,
        "timestamp": "2025-12-09T21:34:11.681110+00:00",
        "meta_object_name": "FENGYUN 1C DEB",
        "meta_object_id": "1999-025MR",
        "meta_epoch": "2025-12-09T07:48:47.519136",
        "meta_mean_motion": 14.78358977,
        "meta_eccentricity": 0.0047193,
        "meta_inclination": 98.9055,
        "meta_ra_of_asc_node": 354.9299,
        "meta_arg_of_pericenter": 51.5913,
        "meta_mean_anomaly": 324.7357,
        "meta_ephemeris_type": 0,
        "meta_classification_type": "U",
        "meta_norad_cat_id": 30016,
        "meta_element_set_no": 999,
        "meta_rev_at_epoch": 99403,
        "meta_bstar": 0.0025298,
        "meta_mean_motion_dot": 0.00018736,
        "meta_mean_motion_ddot": 0,
        "tle_line1": "1 30016U 99025MR  25343.32554999  .00018736  00000+0  25298-2 0  9990",
        "tle_line2": "2 30016  98.9055 354.9299 0047193  51.5913 324.7357 14.78358977994032"
      },
      "geometry": {
        "type": "Point",
        "coordinates": [
          174.68546419167873,
          -5.5807149526969635
        ]
      }
    },
    {
      "type": "Feature",
      "properties": {
        "norad_id": 30017,
        "name": "FENGYUN 1C DEB",
        "group": "fengyun-1c-debris",
        "lat": 39.63364791434373,
        "lon": -144.34417750471212,
        "alt_km": 574.3942759994306,
        "timestamp": "2025-12-09T21:34:11.681120+00:00",
        "meta_object_name": "FENGYUN 1C DEB",
        "meta_object_id": "1999-025MS",
        "meta_epoch": "2025-12-09T02:50:43.609920",
        "meta_mean_motion": 14.61182433,
        "meta_eccentricity": 0.02172998,
        "meta_inclination": 98.7546,
        "meta_ra_of_asc_node": 27.4973,
        "meta_arg_of_pericenter": 186.223,
        "meta_mean_anomaly": 173.6263,
        "meta_ephemeris_type": 0,
        "meta_classification_type": "U",
        "meta_norad_cat_id": 30017,
        "meta_element_set_no": 999,
        "meta_rev_at_epoch": 391,
        "meta_bstar": 0.00024283099,
        "meta_mean_motion_dot": 1.606e-05,
        "meta_mean_motion_ddot": 0,
        "tle_line1": "1 30017U 99025MS  25343.11856030  .00001606  00000+0  24283-3 0  9991",
        "tle_line2": "2 30017  98.7546  27.4973 0217299 186.2230 173.6263 14.61182433  3910"
      },
      "geometry": {
        "type": "Point",
        "coordinates": [
          -144.34417750471212,
          39.63364791434373
        ]
      }
    },
    {
      "type": "Feature",
      "properties": {
        "norad_id": 30018,
        "name": "FENGYUN 1C DEB",
        "group": "fengyun-1c-debris",
        "lat": 50.84979853233225,
        "lon": 55.40344351368693,
        "alt_km": 719.0359147844692,
        "timestamp": "2025-12-09T21:34:11.681131+00:00",
        "meta_object_name": "FENGYUN 1C DEB",
        "meta_object_id": "1999-025MT",
        "meta_epoch": "2025-12-09T11:39:18.989280",
        "meta_mean_motion": 14.73117963,
        "meta_eccentricity": 0.01166692,
        "meta_inclination": 98.7558,
        "meta_ra_of_asc_node": 65.8705,
        "meta_arg_of_pericenter": 205.6666,
        "meta_mean_anomaly": 177.1845,
        "meta_ephemeris_type": 0,
        "meta_classification_type": "U",
        "meta_norad_cat_id": 30018,
        "meta_element_set_no": 999,
        "meta_rev_at_epoch": 389,
        "meta_bstar": 0.0012679439,
        "meta_mean_motion_dot": 9.044e-05,
        "meta_mean_motion_ddot": 0,
        "tle_line1": "1 30018U 99025MT  25343.48563645  .00009044  00000+0  12679-2 0  9998",
        "tle_line2": "2 30018  98.7558  65.8705 0116669 205.6666 177.1845 14.73117963  3892"
      },
      "geometry": {
        "type": "Point",
        "coordinates": [
          55.40344351368693,
          50.84979853233225
        ]
      }
    },
    {
      "type": "Feature",
      "properties": {
        "norad_id": 30020,
        "name": "FENGYUN 1C DEB",
        "group": "fengyun-1c-debris",
        "lat": 47.14871258356143,
        "lon": 177.44696453635953,
        "alt_km": 793.3899760136155,
        "timestamp": "2025-12-09T21:34:11.681141+00:00",
        "meta_object_name": "FENGYUN 1C DEB",
        "meta_object_id": "1999-025MV",
        "meta_epoch": "2025-12-09T12:58:29.161056",
        "meta_mean_motion": 14.04456743,
        "meta_eccentricity": 0.01840088,
        "meta_inclination": 98.8469,
        "meta_ra_of_asc_node": 347.4329,
        "meta_arg_of_pericenter": 79.4071,
        "meta_mean_anomaly": 41.2126,
        "meta_ephemeris_type": 0,
        "meta_classification_type": "U",
        "meta_norad_cat_id": 30020,
        "meta_element_set_no": 999,
        "meta_rev_at_epoch": 96613,
        "meta_bstar": 0.00089180944,
        "meta_mean_motion_dot": 1.612e-05,
        "meta_mean_motion_ddot": 0,
        "tle_line1": "1 30020U 99025MV  25343.54061529  .00001612  00000+0  89181-3 0  9998",
        "tle_line2": "2 30020  98.8469 347.4329 0184008  79.4071  41.2126 14.04456743966131"
      },
      "geometry": {
        "type": "Point",
        "coordinates": [
          177.44696453635953,
          47.14871258356143
        ]
      }
    },
    {
      "type": "Feature",
      "properties": {
        "norad_id": 30021,
        "name": "FENGYUN 1C DEB",
        "group": "fengyun-1c-debris",
        "lat": -70.18535691394294,
        "lon": 1.073944952534101,
        "alt_km": 832.3021898570787,
        "timestamp": "2025-12-09T21:34:11.681151+00:00",
        "meta_object_name": "FENGYUN 1C DEB",
        "meta_object_id": "1999-025MW",
        "meta_epoch": "2025-12-09T12:14:19.991040",
        "meta_mean_motion": 14.0488885,
        "meta_eccentricity": 0.00720438,
        "meta_inclination": 98.8352,
        "meta_ra_of_asc_node": 335.1219,
        "meta_arg_of_pericenter": 296.2251,
        "meta_mean_anomaly": 186.453,
        "meta_ephemeris_type": 0,
        "meta_classification_type": "U",
        "meta_norad_cat_id": 30021,
        "meta_element_set_no": 999,
        "meta_rev_at_epoch": 96886,
        "meta_bstar": 0.00033867937,
        "meta_mean_motion_dot": 5.13e-06,
        "meta_mean_motion_ddot": 0,
        "tle_line1": "1 30021U 99025MW  25343.50995360  .00000513  00000+0  33868-3 0  9994",
        "tle_line2": "2 30021  98.8352 335.1219 0072043 296.2251 186.4530 14.04888850968860"
      },
      "geometry": {
        "type": "Point",
        "coordinates": [
          1.073944952534101,
          -70.18535691394294
        ]
      }
    }
  ]
}